[{"OBJECT_NAME":"STARLINK-4572","OBJECT_ID":"2022-105AW","EPOCH":"2026-03-09T16:09:10.695744","MEAN_MOTION":15.21020685,"ECCENTRICITY":0.00018422,"INCLINATION":97.6182,"RA_OF_ASC_NODE":315.6347,"ARG_OF_PERICENTER":18.3505,"MEAN_ANOMALY":341.7796,"EPHEMERIS_TYPE":0,"CLASSIFICATION_TYPE":"U","NORAD_CAT_ID":53692,"ELEMENT_SET_NO":999,"REV_AT_EPOCH":19355,"BSTAR":0.00056421038,"MEAN_MOTION_DOT":0.00012459,"MEAN_MOTION_DDOT":0},{"OBJECT_NAME":"MULE 4T","OBJECT_ID":"2025-313AQ","EPOCH":"2026-03-09T21:24:34.594848","MEAN_MOTION":15.22526761,"ECCENTRICITY":0.00094122,"INCLINATION":97.4001,"RA_OF_ASC_NODE":145.2527,"ARG_OF_PERICENTER":352.2509,"MEAN_ANOMALY":7.858,"EPHEMERIS_TYPE":0,"CLASSIFICATION_TYPE":"U","NORAD_CAT_ID":67286,"ELEMENT_SET_NO":999,"REV_AT_EPOCH":1085,"BSTAR":0.00051041148,"MEAN_MOTION_DOT":0.00011788,"MEAN_MOTION_DDOT":0}]
